[{"OBJECT_NAME":"STARLINK-2697","OBJECT_ID":"2021-040AY","EPOCH":"2026-03-10T00:00:02.999808","MEAN_MOTION":15.25807567,"ECCENTRICITY":7.478e-5,"INCLINATION":53.1393,"RA_OF_ASC_NODE":189.5177,"ARG_OF_PERICENTER":109.17,"MEAN_ANOMALY":135.2099,"EPHEMERIS_TYPE":0,"CLASSIFICATION_TYPE":"U","NORAD_CAT_ID":48474,"ELEMENT_SET_NO":999,"REV_AT_EPOCH":574,"BSTAR":0.05619378,"MEAN_MOTION_DOT":0.01604191,"MEAN_MOTION_DDOT":0},{"OBJECT_NAME":"COSMOS 2588","OBJECT_ID":"2025-109A","EPOCH":"2026-03-09T19:28:59.107008","MEAN_MOTION":15.29122656,"ECCENTRICITY":0.0005019,"INCLINATION":72.9704,"RA_OF_ASC_NODE":73.5401,"ARG_OF_PERICENTER":308.678,"MEAN_ANOMALY":51.3966,"EPHEMERIS_TYPE":0,"CLASSIFICATION_TYPE":"U","NORAD_CAT_ID":64095,"ELEMENT_SET_NO":999,"REV_AT_EPOCH":4442,"BSTAR":0.00032611,"MEAN_MOTION_DOT":9.169e-5,"MEAN_MOTION_DDOT":0}]
